{
  "type": "FeatureCollection",
  "features": [
    {
      "type": "Feature",
      "properties": {
        "norad_id": 33913,
        "name": "COSMOS 2251 DEB",
        "group": "cosmos-2251-debris",
        "lat": 66.23593401032001,
        "lon": -65.23503780356235,
        "alt_km": 752.3153709129128,
        "timestamp": "2025-12-27T20:30:59.672933+00:00",
        "meta_object_name": "COSMOS 2251 DEB",
        "meta_object_id": "1993-036DS",
        "meta_epoch": "2025-12-26T21:30:57.165408",
        "meta_mean_motion": 14.48546591,
        "meta_eccentricity": 0.0048159,
        "meta_inclination": 74.0331,
        "meta_ra_of_asc_node": 157.1205,
        "meta_arg_of_pericenter": 257.0733,
        "meta_mean_anomaly": 255.4073,
        "meta_ephemeris_type": 0,
        "meta_classification_type": "U",
        "meta_norad_cat_id": 33913,
        "meta_element_set_no": 999,
        "meta_rev_at_epoch": 88662,
        "meta_bstar": 0.00077683,
        "meta_mean_motion_dot": 2.934e-05,
        "meta_mean_motion_ddot": 0,
        "tle_line1": "1 33913U 93036DS  25360.89649497  .00002934  00000+0  77683-3 0  9993",
        "tle_line2": "2 33913  74.0331 157.1205 0048159 257.0733 255.4073 14.48546591886627"
      },
      "geometry": {
        "type": "Point",
        "coordinates": [
          -65.23503780356235,
          66.23593401032001
        ]
      }
    },
    {
      "type": "Feature",
      "properties": {
        "norad_id": 33914,
        "name": "COSMOS 2251 DEB",
        "group": "cosmos-2251-debris",
        "lat": -52.81362522769938,
        "lon": -167.734058084603,
        "alt_km": 1181.37637324335,
        "timestamp": "2025-12-27T20:30:59.672944+00:00",
        "meta_object_name": "COSMOS 2251 DEB",
        "meta_object_id": "1993-036DT",
        "meta_epoch": "2025-12-27T05:28:33.697056",
        "meta_mean_motion": 13.71994013,
        "meta_eccentricity": 0.030077,
        "meta_inclination": 74.0912,
        "meta_ra_of_asc_node": 351.2172,
        "meta_arg_of_pericenter": 90.753,
        "meta_mean_anomaly": 289.0161,
        "meta_ephemeris_type": 0,
        "meta_classification_type": "U",
        "meta_norad_cat_id": 33914,
        "meta_element_set_no": 999,
        "meta_rev_at_epoch": 84280,
        "meta_bstar": 0.00032751,
        "meta_mean_motion_dot": 3.91e-06,
        "meta_mean_motion_ddot": 0,
        "tle_line1": "1 33914U 93036DT  25361.22816779  .00000391  00000+0  32751-3 0  9993",
        "tle_line2": "2 33914  74.0912 351.2172 0300770  90.7530 289.0161 13.71994013842804"
      },
      "geometry": {
        "type": "Point",
        "coordinates": [
          -167.734058084603,
          -52.81362522769938
        ]
      }
    },
    {
      "type": "Feature",
      "properties": {
        "norad_id": 33915,
        "name": "COSMOS 2251 DEB",
        "group": "cosmos-2251-debris",
        "lat": -7.542725376751192,
        "lon": -171.42387188804344,
        "alt_km": 781.1785182663798,
        "timestamp": "2025-12-27T20:30:59.672954+00:00",
        "meta_object_name": "COSMOS 2251 DEB",
        "meta_object_id": "1993-036DU",
        "meta_epoch": "2025-12-27T11:52:15.436704",
        "meta_mean_motion": 14.35115266,
        "meta_eccentricity": 0.0103953,
        "meta_inclination": 74.043,
        "meta_ra_of_asc_node": 7.0649,
        "meta_arg_of_pericenter": 95.605,
        "meta_mean_anomaly": 30.5648,
        "meta_ephemeris_type": 0,
        "meta_classification_type": "U",
        "meta_norad_cat_id": 33915,
        "meta_element_set_no": 999,
        "meta_rev_at_epoch": 87969,
        "meta_bstar": 0.00039929,
        "meta_mean_motion_dot": 1.186e-05,
        "meta_mean_motion_ddot": 0,
        "tle_line1": "1 33915U 93036DU  25361.49462311  .00001186  00000+0  39929-3 0  9999",
        "tle_line2": "2 33915  74.0430   7.0649 0103953  95.6050  30.5648 14.35115266879692"
      },
      "geometry": {
        "type": "Point",
        "coordinates": [
          -171.42387188804344,
          -7.542725376751192
        ]
      }
    },
    {
      "type": "Feature",
      "properties": {
        "norad_id": 33916,
        "name": "COSMOS 2251 DEB",
        "group": "cosmos-2251-debris",
        "lat": -38.764137966507924,
        "lon": 2.4785442265095536,
        "alt_km": 1175.4873208913523,
        "timestamp": "2025-12-27T20:30:59.672964+00:00",
        "meta_object_name": "COSMOS 2251 DEB",
        "meta_object_id": "1993-036DV",
        "meta_epoch": "2025-12-27T12:35:33.108000",
        "meta_mean_motion": 13.68628231,
        "meta_eccentricity": 0.0324638,
        "meta_inclination": 74.0518,
        "meta_ra_of_asc_node": 16.2948,
        "meta_arg_of_pericenter": 185.2574,
        "meta_mean_anomaly": 305.3691,
        "meta_ephemeris_type": 0,
        "meta_classification_type": "U",
        "meta_norad_cat_id": 33916,
        "meta_element_set_no": 999,
        "meta_rev_at_epoch": 84093,
        "meta_bstar": 0.00032473,
        "meta_mean_motion_dot": 3.81e-06,
        "meta_mean_motion_ddot": 0,
        "tle_line1": "1 33916U 93036DV  25361.52468875  .00000381  00000+0  32473-3 0  9998",
        "tle_line2": "2 33916  74.0518  16.2948 0324638 185.2574 305.3691 13.68628231840938"
      },
      "geometry": {
        "type": "Point",
        "coordinates": [
          2.4785442265095536,
          -38.764137966507924
        ]
      }
    },
    {
      "type": "Feature",
      "properties": {
        "norad_id": 33917,
        "name": "COSMOS 2251 DEB",
        "group": "cosmos-2251-debris",
        "lat": 64.9705461478916,
        "lon": 135.20941990862178,
        "alt_km": 1129.0111057960512,
        "timestamp": "2025-12-27T20:30:59.672974+00:00",
        "meta_object_name": "COSMOS 2251 DEB",
        "meta_object_id": "1993-036DW",
        "meta_epoch": "2025-12-27T07:52:49.891008",
        "meta_mean_motion": 13.69395836,
        "meta_eccentricity": 0.0331064,
        "meta_inclination": 74.1073,
        "meta_ra_of_asc_node": 98.4731,
        "meta_arg_of_pericenter": 196.254,
        "meta_mean_anomaly": 162.7759,
        "meta_ephemeris_type": 0,
        "meta_classification_type": "U",
        "meta_norad_cat_id": 33917,
        "meta_element_set_no": 999,
        "meta_rev_at_epoch": 83933,
        "meta_bstar": 0.0012085,
        "meta_mean_motion_dot": 1.522e-05,
        "meta_mean_motion_ddot": 0,
        "tle_line1": "1 33917U 93036DW  25361.32835522  .00001522  00000+0  12085-2 0  9998",
        "tle_line2": "2 33917  74.1073  98.4731 0331064 196.2540 162.7759 13.69395836839339"
      },
      "geometry": {
        "type": "Point",
        "coordinates": [
          135.20941990862178,
          64.9705461478916
        ]
      }
    },
    {
      "type": "Feature",
      "properties": {
        "norad_id": 33920,
        "name": "COSMOS 2251 DEB",
        "group": "cosmos-2251-debris",
        "lat": -42.72046944395365,
        "lon": -105.59997987497697,
        "alt_km": 684.3047780562156,
        "timestamp": "2025-12-27T20:30:59.672984+00:00",
        "meta_object_name": "COSMOS 2251 DEB",
        "meta_object_id": "1993-036DZ",
        "meta_epoch": "2025-12-27T04:15:33.347520",
        "meta_mean_motion": 14.58497819,
        "meta_eccentricity": 0.00375268,
        "meta_inclination": 74.0609,
        "meta_ra_of_asc_node": 270.9888,
        "meta_arg_of_pericenter": 275.3001,
        "meta_mean_anomaly": 84.3883,
        "meta_ephemeris_type": 0,
        "meta_classification_type": "U",
        "meta_norad_cat_id": 33920,
        "meta_element_set_no": 999,
        "meta_rev_at_epoch": 88325,
        "meta_bstar": 0.0018965408,
        "meta_mean_motion_dot": 8.876e-05,
        "meta_mean_motion_ddot": 0,
        "tle_line1": "1 33920U 93036DZ  25361.17746930  .00008876  00000+0  18965-2 0  9991",
        "tle_line2": "2 33920  74.0609 270.9888 0037526 275.3001  84.3883 14.58497819883254"
      },
      "geometry": {
        "type": "Point",
        "coordinates": [
          -105.59997987497697,
          -42.72046944395365
        ]
      }
    },
    {
      "type": "Feature",
      "properties": {
        "norad_id": 33922,
        "name": "COSMOS 2251 DEB",
        "group": "cosmos-2251-debris",
        "lat": -23.424732794458198,
        "lon": 112.30400216776783,
        "alt_km": 737.082740908797,
        "timestamp": "2025-12-27T20:30:59.672994+00:00",
        "meta_object_name": "COSMOS 2251 DEB",
        "meta_object_id": "1993-036EB",
        "meta_epoch": "2025-12-26T10:09:19.550880",
        "meta_mean_motion": 14.49558695,
        "meta_eccentricity": 0.0023079,
        "meta_inclination": 74.0472,
        "meta_ra_of_asc_node": 122.1065,
        "meta_arg_of_pericenter": 231.2219,
        "meta_mean_anomaly": 195.9664,
        "meta_ephemeris_type": 0,
        "meta_classification_type": "U",
        "meta_norad_cat_id": 33922,
        "meta_element_set_no": 999,
        "meta_rev_at_epoch": 88776,
        "meta_bstar": 0.00055696,
        "meta_mean_motion_dot": 2.117e-05,
        "meta_mean_motion_ddot": 0,
        "tle_line1": "1 33922U 93036EB  25360.42314295  .00002117  00000+0  55696-3 0  9990",
        "tle_line2": "2 33922  74.0472 122.1065 0023079 231.2219 195.9664 14.49558695887765"
      },
      "geometry": {
        "type": "Point",
        "coordinates": [
          112.30400216776783,
          -23.424732794458198
        ]
      }
    }
  ]
}